<?xml version="1.0" encoding="UTF-8"?>
<kml xmlns="http://www.opengis.net/kml/2.2">
  <Document>
    <name>Pealkirjata kaart</name>
    <description/>
    <Style id="icon-1899-0288D1-nodesc-normal">
      <IconStyle>
        <color>ffd18802</color>
        <scale>1</scale>
        <Icon>
          <href>https://www.gstatic.com/mapspro/images/stock/503-wht-blank_maps.png</href>
        </Icon>
        <hotSpot x="32" xunits="pixels" y="64" yunits="insetPixels"/>
      </IconStyle>
      <LabelStyle>
        <scale>0</scale>
      </LabelStyle>
      <BalloonStyle>
        <text><![CDATA[<h3>$[name]</h3>]]></text>
      </BalloonStyle>
    </Style>
    <Style id="icon-1899-0288D1-nodesc-highlight">
      <IconStyle>
        <color>ffd18802</color>
        <scale>1</scale>
        <Icon>
          <href>https://www.gstatic.com/mapspro/images/stock/503-wht-blank_maps.png</href>
        </Icon>
        <hotSpot x="32" xunits="pixels" y="64" yunits="insetPixels"/>
      </IconStyle>
      <LabelStyle>
        <scale>1</scale>
      </LabelStyle>
      <BalloonStyle>
        <text><![CDATA[<h3>$[name]</h3>]]></text>
      </BalloonStyle>
    </Style>
    <StyleMap id="icon-1899-0288D1-nodesc">
      <Pair>
        <key>normal</key>
        <styleUrl>#icon-1899-0288D1-nodesc-normal</styleUrl>
      </Pair>
      <Pair>
        <key>highlight</key>
        <styleUrl>#icon-1899-0288D1-nodesc-highlight</styleUrl>
      </Pair>
    </StyleMap>
    <Style id="icon-1899-DB4436-nodesc-normal">
      <IconStyle>
        <color>ff3644db</color>
        <scale>1</scale>
        <Icon>
          <href>https://www.gstatic.com/mapspro/images/stock/503-wht-blank_maps.png</href>
        </Icon>
        <hotSpot x="32" xunits="pixels" y="64" yunits="insetPixels"/>
      </IconStyle>
      <LabelStyle>
        <scale>0</scale>
      </LabelStyle>
      <BalloonStyle>
        <text><![CDATA[<h3>$[name]</h3>]]></text>
      </BalloonStyle>
    </Style>
    <Style id="icon-1899-DB4436-nodesc-highlight">
      <IconStyle>
        <color>ff3644db</color>
        <scale>1</scale>
        <Icon>
          <href>https://www.gstatic.com/mapspro/images/stock/503-wht-blank_maps.png</href>
        </Icon>
        <hotSpot x="32" xunits="pixels" y="64" yunits="insetPixels"/>
      </IconStyle>
      <LabelStyle>
        <scale>1</scale>
      </LabelStyle>
      <BalloonStyle>
        <text><![CDATA[<h3>$[name]</h3>]]></text>
      </BalloonStyle>
    </Style>
    <StyleMap id="icon-1899-DB4436-nodesc">
      <Pair>
        <key>normal</key>
        <styleUrl>#icon-1899-DB4436-nodesc-normal</styleUrl>
      </Pair>
      <Pair>
        <key>highlight</key>
        <styleUrl>#icon-1899-DB4436-nodesc-highlight</styleUrl>
      </Pair>
    </StyleMap>
    <Style id="line-1267FF-5000-nodesc-normal">
      <LineStyle>
        <color>ffff6712</color>
        <width>5</width>
      </LineStyle>
      <BalloonStyle>
        <text><![CDATA[<h3>$[name]</h3>]]></text>
      </BalloonStyle>
    </Style>
    <Style id="line-1267FF-5000-nodesc-highlight">
      <LineStyle>
        <color>ffff6712</color>
        <width>7.5</width>
      </LineStyle>
      <BalloonStyle>
        <text><![CDATA[<h3>$[name]</h3>]]></text>
      </BalloonStyle>
    </Style>
    <StyleMap id="line-1267FF-5000-nodesc">
      <Pair>
        <key>normal</key>
        <styleUrl>#line-1267FF-5000-nodesc-normal</styleUrl>
      </Pair>
      <Pair>
        <key>highlight</key>
        <styleUrl>#line-1267FF-5000-nodesc-highlight</styleUrl>
      </Pair>
    </StyleMap>
    <Folder>
      <name>Pealkirjata kiht</name>
    </Folder>
    <Folder>
      <name>Pealkirjata kiht</name>
      <Placemark>
        <name>Kodu</name>
        <styleUrl>#icon-1899-0288D1-nodesc</styleUrl>
        <Point>
          <coordinates>
            24.7050043,59.4243337,0
          </coordinates>
        </Point>
      </Placemark>
      <Placemark>
        <name>Bussipeatus</name>
        <styleUrl>#icon-1899-0288D1-nodesc</styleUrl>
        <Point>
          <coordinates>
            24.7086272,59.4146115,0
          </coordinates>
        </Point>
      </Placemark>
      <Placemark>
        <name>Bussipeatus</name>
        <styleUrl>#icon-1899-0288D1-nodesc</styleUrl>
        <Point>
          <coordinates>
            24.7153265,59.4227582,0
          </coordinates>
        </Point>
      </Placemark>
      <Placemark>
        <name>TechnoTLN</name>
        <styleUrl>#icon-1899-0288D1-nodesc</styleUrl>
        <Point>
          <coordinates>
            24.7061161,59.4113749,0
          </coordinates>
        </Point>
      </Placemark>
    </Folder>
    <Folder>
      <name>Pealkirjata kiht</name>
    </Folder>
    <Folder>
      <name>Juhised lähtekohast Kodu sihtkohta TechnoTLN</name>
      <Placemark>
        <name>Juhised lähtekohast Kodu sihtkohta TechnoTLN</name>
        <styleUrl>#line-1267FF-5000-nodesc</styleUrl>
        <LineString>
          <tessellate>1</tessellate>
          <coordinates>
            24.70505,59.42438,0
            24.70574,59.42423,0
            24.70598,59.42417,0
            24.70625,59.42447,0
            24.70974,59.42368,0
            24.70992,59.42387,0
            24.71009,59.42408,0
            24.71013,59.42417,0
            24.71203,59.42373,0
            24.7123,59.42368,0
            24.71306,59.4235,0
            24.71334,59.42344,0
            24.71385,59.42332,0
            24.71412,59.42326,0
            24.71463,59.42314,0
            24.71501,59.42306,0
            24.71522,59.42301,0
            24.71542,59.42296,0
            24.71526,59.42277,0
            24.71509,59.42257,0
            24.71456,59.42196,0
            24.71408,59.42138,0
            24.71245,59.41957,0
            24.71243,59.41955,0
            24.71239,59.41951,0
            24.71238,59.41948,0
            24.71235,59.41944,0
            24.71221,59.41929,0
            24.71204,59.4191,0
            24.7119,59.41893,0
            24.71172,59.41874,0
            24.7116,59.4186,0
            24.71146,59.41842,0
            24.71137,59.41832,0
            24.71132,59.41827,0
            24.71117,59.41809,0
            24.71078,59.41764,0
            24.71073,59.41759,0
            24.71066,59.41751,0
            24.71064,59.41748,0
            24.71063,59.41745,0
            24.71061,59.41743,0
            24.71055,59.41738,0
            24.71032,59.4171,0
            24.71016,59.41691,0
            24.71013,59.41687,0
            24.71012,59.41684,0
            24.71011,59.41682,0
            24.7101,59.41677,0
            24.71009,59.41674,0
            24.71006,59.4167,0
            24.71,59.41663,0
            24.70993,59.41653,0
            24.70988,59.41645,0
            24.70985,59.4164,0
            24.70968,59.41615,0
            24.70946,59.41584,0
            24.70926,59.41555,0
            24.70901,59.41517,0
            24.70898,59.41513,0
            24.70894,59.41507,0
            24.7089,59.415,0
            24.70888,59.41497,0
            24.70862,59.41462,0
            24.70844,59.41438,0
            24.70826,59.41413,0
            24.70803,59.41379,0
            24.70798,59.41373,0
            24.70795,59.41371,0
            24.70793,59.41369,0
            24.70788,59.41361,0
            24.70785,59.41357,0
            24.70781,59.41352,0
            24.70777,59.41346,0
            24.70767,59.41334,0
            24.70744,59.41313,0
            24.70739,59.41308,0
            24.70736,59.41306,0
            24.70733,59.41305,0
            24.70731,59.41303,0
            24.7073,59.41298,0
            24.70728,59.41293,0
            24.70726,59.41288,0
            24.70723,59.41284,0
            24.70712,59.4127,0
            24.70702,59.41256,0
            24.70695,59.41246,0
            24.70691,59.4124,0
            24.70688,59.41235,0
            24.70684,59.41229,0
            24.70679,59.41222,0
            24.70673,59.41214,0
            24.70663,59.41199,0
            24.70659,59.41195,0
            24.70654,59.41187,0
            24.70648,59.4118,0
            24.70642,59.41172,0
            24.70633,59.41161,0
            24.70613,59.41137,0
          </coordinates>
        </LineString>
      </Placemark>
      <Placemark>
        <name>Kodu</name>
        <styleUrl>#icon-1899-DB4436-nodesc</styleUrl>
        <Point>
          <coordinates>
            24.7050475,59.4243833,0
          </coordinates>
        </Point>
      </Placemark>
      <Placemark>
        <name>Bussipeatus</name>
        <styleUrl>#icon-1899-DB4436-nodesc</styleUrl>
        <Point>
          <coordinates>
            24.7152591,59.422773,0
          </coordinates>
        </Point>
      </Placemark>
      <Placemark>
        <name>Bussipeatus</name>
        <styleUrl>#icon-1899-DB4436-nodesc</styleUrl>
        <Point>
          <coordinates>
            24.7086164,59.4146153,0
          </coordinates>
        </Point>
      </Placemark>
      <Placemark>
        <name>TechnoTLN</name>
        <styleUrl>#icon-1899-DB4436-nodesc</styleUrl>
        <Point>
          <coordinates>
            24.706127,59.4113725,0
          </coordinates>
        </Point>
      </Placemark>
    </Folder>
  </Document>
</kml>
